<?xml version="1.0" encoding="UTF-8"?>
<ndm xmlns:xsi="http://www.w3.org/2001/XMLSchema-instance" xsi:noNamespaceSchemaLocation="https://sanaregistry.org/r/ndmxml_unqualified/ndmxml-2.0.0-master-2.0.xsd">
<omm id="CCSDS_OMM_VERS" version="2.0">
<header><CREATION_DATE/><ORIGINATOR/></header><body><segment><metadata><OBJECT_NAME>KUIPER-00053</OBJECT_NAME><OBJECT_ID>2025-134P</OBJECT_ID><CENTER_NAME>EARTH</CENTER_NAME><REF_FRAME>TEME</REF_FRAME><TIME_SYSTEM>UTC</TIME_SYSTEM><MEAN_ELEMENT_THEORY>SGP4</MEAN_ELEMENT_THEORY></metadata><data><meanElements><EPOCH>2025-11-29T03:37:48.826848</EPOCH><MEAN_MOTION>14.76531341</MEAN_MOTION><ECCENTRICITY>.0002443</ECCENTRICITY><INCLINATION>51.9019</INCLINATION><RA_OF_ASC_NODE>307.6103</RA_OF_ASC_NODE><ARG_OF_PERICENTER>358.5387</ARG_OF_PERICENTER><MEAN_ANOMALY>1.5566</MEAN_ANOMALY></meanElements><tleParameters><EPHEMERIS_TYPE>0</EPHEMERIS_TYPE><CLASSIFICATION_TYPE>U</CLASSIFICATION_TYPE><NORAD_CAT_ID>64513</NORAD_CAT_ID><ELEMENT_SET_NO>999</ELEMENT_SET_NO><REV_AT_EPOCH>2532</REV_AT_EPOCH><BSTAR>.43462668E-3</BSTAR><MEAN_MOTION_DOT>.2844E-4</MEAN_MOTION_DOT><MEAN_MOTION_DDOT>0</MEAN_MOTION_DDOT></tleParameters></data></segment></body></omm>
<omm id="CCSDS_OMM_VERS" version="2.0">
<header><CREATION_DATE/><ORIGINATOR/></header><body><segment><metadata><OBJECT_NAME>KUIPER-00054</OBJECT_NAME><OBJECT_ID>2025-134Q</OBJECT_ID><CENTER_NAME>EARTH</CENTER_NAME><REF_FRAME>TEME</REF_FRAME><TIME_SYSTEM>UTC</TIME_SYSTEM><MEAN_ELEMENT_THEORY>SGP4</MEAN_ELEMENT_THEORY></metadata><data><meanElements><EPOCH>2025-11-29T07:07:48.392832</EPOCH><MEAN_MOTION>14.79875074</MEAN_MOTION><ECCENTRICITY>.00048968</ECCENTRICITY><INCLINATION>51.8990</INCLINATION><RA_OF_ASC_NODE>302.0164</RA_OF_ASC_NODE><ARG_OF_PERICENTER>344.3387</ARG_OF_PERICENTER><MEAN_ANOMALY>15.7423</MEAN_ANOMALY></meanElements><tleParameters><EPHEMERIS_TYPE>0</EPHEMERIS_TYPE><CLASSIFICATION_TYPE>U</CLASSIFICATION_TYPE><NORAD_CAT_ID>64514</NORAD_CAT_ID><ELEMENT_SET_NO>999</ELEMENT_SET_NO><REV_AT_EPOCH>2541</REV_AT_EPOCH><BSTAR>.73510867E-3</BSTAR><MEAN_MOTION_DOT>.538E-4</MEAN_MOTION_DOT><MEAN_MOTION_DDOT>0</MEAN_MOTION_DDOT></tleParameters></data></segment></body></omm>
<omm id="CCSDS_OMM_VERS" version="2.0">
<header><CREATION_DATE/><ORIGINATOR/></header><body><segment><metadata><OBJECT_NAME>KUIPER-00055</OBJECT_NAME><OBJECT_ID>2025-134R</OBJECT_ID><CENTER_NAME>EARTH</CENTER_NAME><REF_FRAME>TEME</REF_FRAME><TIME_SYSTEM>UTC</TIME_SYSTEM><MEAN_ELEMENT_THEORY>SGP4</MEAN_ELEMENT_THEORY></metadata><data><meanElements><EPOCH>2025-11-29T07:14:52.787904</EPOCH><MEAN_MOTION>15.17282187</MEAN_MOTION><ECCENTRICITY>.00027623</ECCENTRICITY><INCLINATION>51.8927</INCLINATION><RA_OF_ASC_NODE>291.5277</RA_OF_ASC_NODE><ARG_OF_PERICENTER>108.0624</ARG_OF_PERICENTER><MEAN_ANOMALY>252.0656</MEAN_ANOMALY></meanElements><tleParameters><EPHEMERIS_TYPE>0</EPHEMERIS_TYPE><CLASSIFICATION_TYPE>U</CLASSIFICATION_TYPE><NORAD_CAT_ID>64515</NORAD_CAT_ID><ELEMENT_SET_NO>999</ELEMENT_SET_NO><REV_AT_EPOCH>2556</REV_AT_EPOCH><BSTAR>.87119178E-3</BSTAR><MEAN_MOTION_DOT>.17306E-3</MEAN_MOTION_DOT><MEAN_MOTION_DDOT>0</MEAN_MOTION_DDOT></tleParameters></data></segment></body></omm>
<omm id="CCSDS_OMM_VERS" version="2.0">
<header><CREATION_DATE/><ORIGINATOR/></header><body><segment><metadata><OBJECT_NAME>KUIPER-00056</OBJECT_NAME><OBJECT_ID>2025-134S</OBJECT_ID><CENTER_NAME>EARTH</CENTER_NAME><REF_FRAME>TEME</REF_FRAME><TIME_SYSTEM>UTC</TIME_SYSTEM><MEAN_ELEMENT_THEORY>SGP4</MEAN_ELEMENT_THEORY></metadata><data><meanElements><EPOCH>2025-11-29T05:20:24.688608</EPOCH><MEAN_MOTION>14.79977963</MEAN_MOTION><ECCENTRICITY>.00021889</ECCENTRICITY><INCLINATION>51.9032</INCLINATION><RA_OF_ASC_NODE>308.3836</RA_OF_ASC_NODE><ARG_OF_PERICENTER>348.0820</ARG_OF_PERICENTER><MEAN_ANOMALY>12.0090</MEAN_ANOMALY></meanElements><tleParameters><EPHEMERIS_TYPE>0</EPHEMERIS_TYPE><CLASSIFICATION_TYPE>U</CLASSIFICATION_TYPE><NORAD_CAT_ID>64516</NORAD_CAT_ID><ELEMENT_SET_NO>999</ELEMENT_SET_NO><REV_AT_EPOCH>2532</REV_AT_EPOCH><BSTAR>.12489171E-2</BSTAR><MEAN_MOTION_DOT>.9323E-4</MEAN_MOTION_DOT><MEAN_MOTION_DDOT>0</MEAN_MOTION_DDOT></tleParameters></data></segment></body></omm>
<omm id="CCSDS_OMM_VERS" version="2.0">
<header><CREATION_DATE/><ORIGINATOR/></header><body><segment><metadata><OBJECT_NAME>KUIPER-00057</OBJECT_NAME><OBJECT_ID>2025-134T</OBJECT_ID><CENTER_NAME>EARTH</CENTER_NAME><REF_FRAME>TEME</REF_FRAME><TIME_SYSTEM>UTC</TIME_SYSTEM><MEAN_ELEMENT_THEORY>SGP4</MEAN_ELEMENT_THEORY></metadata><data><meanElements><EPOCH>2025-11-29T05:08:41.885952</EPOCH><MEAN_MOTION>14.79987397</MEAN_MOTION><ECCENTRICITY>.00090397</ECCENTRICITY><INCLINATION>51.8999</INCLINATION><RA_OF_ASC_NODE>315.9120</RA_OF_ASC_NODE><ARG_OF_PERICENTER>309.1569</ARG_OF_PERICENTER><MEAN_ANOMALY>50.8590</MEAN_ANOMALY></meanElements><tleParameters><EPHEMERIS_TYPE>0</EPHEMERIS_TYPE><CLASSIFICATION_TYPE>U</CLASSIFICATION_TYPE><NORAD_CAT_ID>64517</NORAD_CAT_ID><ELEMENT_SET_NO>999</ELEMENT_SET_NO><REV_AT_EPOCH>2521</REV_AT_EPOCH><BSTAR>.77770949E-3</BSTAR><MEAN_MOTION_DOT>.5722E-4</MEAN_MOTION_DOT><MEAN_MOTION_DDOT>0</MEAN_MOTION_DDOT></tleParameters></data></segment></body></omm>
<omm id="CCSDS_OMM_VERS" version="2.0">
<header><CREATION_DATE/><ORIGINATOR/></header><body><segment><metadata><OBJECT_NAME>KUIPER-00058</OBJECT_NAME><OBJECT_ID>2025-134U</OBJECT_ID><CENTER_NAME>EARTH</CENTER_NAME><REF_FRAME>TEME</REF_FRAME><TIME_SYSTEM>UTC</TIME_SYSTEM><MEAN_ELEMENT_THEORY>SGP4</MEAN_ELEMENT_THEORY></metadata><data><meanElements><EPOCH>2025-11-29T06:55:58.089792</EPOCH><MEAN_MOTION>14.79978425</MEAN_MOTION><ECCENTRICITY>.00046726</ECCENTRICITY><INCLINATION>51.9005</INCLINATION><RA_OF_ASC_NODE>309.4994</RA_OF_ASC_NODE><ARG_OF_PERICENTER>348.7633</ARG_OF_PERICENTER><MEAN_ANOMALY>11.3224</MEAN_ANOMALY></meanElements><tleParameters><EPHEMERIS_TYPE>0</EPHEMERIS_TYPE><CLASSIFICATION_TYPE>U</CLASSIFICATION_TYPE><NORAD_CAT_ID>64518</NORAD_CAT_ID><ELEMENT_SET_NO>999</ELEMENT_SET_NO><REV_AT_EPOCH>2531</REV_AT_EPOCH><BSTAR>.54499463E-3</BSTAR><MEAN_MOTION_DOT>.394E-4</MEAN_MOTION_DOT><MEAN_MOTION_DDOT>0</MEAN_MOTION_DDOT></tleParameters></data></segment></body></omm>
<omm id="CCSDS_OMM_VERS" version="2.0">
<header><CREATION_DATE/><ORIGINATOR/></header><body><segment><metadata><OBJECT_NAME>KUIPER-00059</OBJECT_NAME><OBJECT_ID>2025-134V</OBJECT_ID><CENTER_NAME>EARTH</CENTER_NAME><REF_FRAME>TEME</REF_FRAME><TIME_SYSTEM>UTC</TIME_SYSTEM><MEAN_ELEMENT_THEORY>SGP4</MEAN_ELEMENT_THEORY></metadata><data><meanElements><EPOCH>2025-11-29T05:26:35.831904</EPOCH><MEAN_MOTION>14.79927242</MEAN_MOTION><ECCENTRICITY>.00039216</ECCENTRICITY><INCLINATION>51.8997</INCLINATION><RA_OF_ASC_NODE>304.8304</RA_OF_ASC_NODE><ARG_OF_PERICENTER>133.6968</ARG_OF_PERICENTER><MEAN_ANOMALY>226.4320</MEAN_ANOMALY></meanElements><tleParameters><EPHEMERIS_TYPE>0</EPHEMERIS_TYPE><CLASSIFICATION_TYPE>U</CLASSIFICATION_TYPE><NORAD_CAT_ID>64519</NORAD_CAT_ID><ELEMENT_SET_NO>999</ELEMENT_SET_NO><REV_AT_EPOCH>2537</REV_AT_EPOCH><BSTAR>-.47753433E-3</BSTAR><MEAN_MOTION_DOT>-.386E-4</MEAN_MOTION_DOT><MEAN_MOTION_DDOT>0</MEAN_MOTION_DDOT></tleParameters></data></segment></body></omm>
<omm id="CCSDS_OMM_VERS" version="2.0">
<header><CREATION_DATE/><ORIGINATOR/></header><body><segment><metadata><OBJECT_NAME>KUIPER-00060</OBJECT_NAME><OBJECT_ID>2025-134W</OBJECT_ID><CENTER_NAME>EARTH</CENTER_NAME><REF_FRAME>TEME</REF_FRAME><TIME_SYSTEM>UTC</TIME_SYSTEM><MEAN_ELEMENT_THEORY>SGP4</MEAN_ELEMENT_THEORY></metadata><data><meanElements><EPOCH>2025-11-29T05:21:36.108576</EPOCH><MEAN_MOTION>14.80141948</MEAN_MOTION><ECCENTRICITY>.00026515</ECCENTRICITY><INCLINATION>51.9031</INCLINATION><RA_OF_ASC_NODE>305.8639</RA_OF_ASC_NODE><ARG_OF_PERICENTER>38.6376</ARG_OF_PERICENTER><MEAN_ANOMALY>321.4776</MEAN_ANOMALY></meanElements><tleParameters><EPHEMERIS_TYPE>0</EPHEMERIS_TYPE><CLASSIFICATION_TYPE>U</CLASSIFICATION_TYPE><NORAD_CAT_ID>64520</NORAD_CAT_ID><ELEMENT_SET_NO>999</ELEMENT_SET_NO><REV_AT_EPOCH>2534</REV_AT_EPOCH><BSTAR>.63854784E-3</BSTAR><MEAN_MOTION_DOT>.4674E-4</MEAN_MOTION_DOT><MEAN_MOTION_DDOT>0</MEAN_MOTION_DDOT></tleParameters></data></segment></body></omm>

</ndm>
