KUIPER-00053            
1 64513U 25134P   25333.15125957  .00002844  00000+0  43463-3 0  9995
2 64513  51.9019 307.6103 0002443 358.5387   1.5566 14.76531341 25328
KUIPER-00054            
1 64514U 25134Q   25333.29708788  .00005380  00000+0  73511-3 0  9995
2 64514  51.8990 302.0164 0004896 344.3387  15.7423 14.79875074 25415
KUIPER-00055            
1 64515U 25134R   25333.30199986  .00017306  00000+0  87119-3 0  9992
2 64515  51.8927 291.5277 0002762 108.0624 252.0656 15.17282187 25562
KUIPER-00056            
1 64516U 25134S   25333.22250797  .00009323  00000+0  12489-2 0  9999
2 64516  51.9032 308.3836 0002188 348.0820  12.0090 14.79977963 25325
KUIPER-00057            
1 64517U 25134T   25333.21437368  .00005722  00000+0  77771-3 0  9995
2 64517  51.8999 315.9120 0009039 309.1569  50.8590 14.79987397 25212
KUIPER-00058            
1 64518U 25134U   25333.28886678  .00003940  00000+0  54499-3 0  9997
2 64518  51.9005 309.4994 0004672 348.7633  11.3224 14.79978425 25317
KUIPER-00059            
1 64519U 25134V   25333.22680361 -.00003860  00000+0 -47753-3 0  9991
2 64519  51.8997 304.8304 0003921 133.6968 226.4320 14.79927242 25372
KUIPER-00060            
1 64520U 25134W   25333.22333459  .00004674  00000+0  63855-3 0  9999
2 64520  51.9031 305.8639 0002651  38.6376 321.4776 14.80141948 25343
